{
  "type": "FeatureCollection",
  "features": [
    { "type": "Feature", "geometry": { "type": "Point", "coordinates": [13.451027, 50.125072] }, "properties": { "name": "Větrná hůrka", "confidence": "high", "source": "theCrag.com — area/1913105262" } },
    { "type": "Feature", "geometry": { "type": "Point", "coordinates": [13.437817, 50.120045] }, "properties": { "name": "Pod hradem", "confidence": "high", "source": "theCrag.com — area/1280714835" } },
    { "type": "Feature", "geometry": { "type": "Point", "coordinates": [13.438425, 50.1209219] }, "properties": { "name": "Pod hradem (ČHS sector marker, alt.)", "confidence": "high", "source": "ČHS horosvaz.cz — sektor 960" } },
    { "type": "Feature", "geometry": { "type": "Point", "coordinates": [13.430983, 50.119383] }, "properties": { "name": "Stopařka (ČHS boulder, Pod hradem sector)", "confidence": "medium", "source": "ČHS horosvaz.cz" } },
    { "type": "Feature", "geometry": { "type": "Point", "coordinates": [13.441323, 50.122292] }, "properties": { "name": "Hřbitovní kameny", "confidence": "high", "source": "theCrag.com — area/1913105328" } },
    { "type": "Feature", "geometry": { "type": "Point", "coordinates": [13.4493623, 50.1185321] }, "properties": { "name": "Malý Yosemite (OSM: Malý Yosemit)", "confidence": "high", "source": "OpenStreetMap node 1200692397 (source=survey)" } },
    { "type": "Feature", "geometry": { "type": "Point", "coordinates": [13.438909, 50.118599] }, "properties": { "name": "Skalní město (sub-zone, Pod hradem side)", "confidence": "medium", "source": "theCrag.com — area/13275064659" } },
    { "type": "Feature", "geometry": { "type": "Point", "coordinates": [13.439323, 50.118461] }, "properties": { "name": "Skalní město (sub-zone, Potoční kameny side, alt.)", "confidence": "medium", "source": "theCrag.com — area/4350719580" } },
    { "type": "Feature", "geometry": { "type": "Point", "coordinates": [13.43864345, 50.1188844] }, "properties": { "name": "Potoční kameny", "confidence": "medium", "source": "theCrag.com — area/4350709044 (single source, not cross-checked)" } },
    { "type": "Feature", "geometry": { "type": "Point", "coordinates": [13.4499264, 50.1172831] }, "properties": { "name": "Podzimní věž (bonus, already in app sector list)", "confidence": "high", "source": "ČHS horosvaz.cz sektor 962 / theCrag / OSM (cross-validated)" } },
    { "type": "Feature", "geometry": { "type": "Point", "coordinates": [13.440967, 50.12205] }, "properties": { "name": "Kamenné srdce (bonus, already in app sector list)", "confidence": "medium", "source": "ČHS horosvaz.cz (single source)" } },
    { "type": "Feature", "geometry": { "type": "Point", "coordinates": [13.449222, 50.1190194] }, "properties": { "name": "Vajíčko (named boulder, not a sector)", "confidence": "medium", "source": "OpenStreetMap node 1200691718" } },
    { "type": "Feature", "geometry": { "type": "Point", "coordinates": [13.4515358, 50.12075] }, "properties": { "name": "Vyhlídková skála (bonus, already in app sector list)", "confidence": "medium-high", "source": "ČHS horosvaz.cz sektor 963 / theCrag (differ by ~80m, not tightly cross-checked)" } },
    { "type": "Feature", "geometry": { "type": "Point", "coordinates": [13.4560633, 50.1218644] }, "properties": { "name": "Brána (bonus, already in app sector list)", "confidence": "medium-high", "source": "ČHS horosvaz.cz sektor 964 / theCrag (differ by ~80m, not tightly cross-checked)" } },
    { "type": "Feature", "geometry": { "type": "Point", "coordinates": [13.4677972, 50.1168478] }, "properties": { "name": "Rybníček (reference only, not in app sector list)", "confidence": "high", "source": "theCrag.com" } },
    { "type": "Feature", "geometry": { "type": "Point", "coordinates": [13.45018805038, 50.11985840798] }, "properties": { "name": "Západní úbočí (reference only, not in app sector list)", "confidence": "high", "source": "theCrag.com — area/4350834015" } },
    { "type": "Feature", "geometry": { "type": "Point", "coordinates": [13.4854175, 50.1311914] }, "properties": { "name": "Vlčí kopec (bonus, already in app sector list)", "confidence": "high", "source": "ČHS horosvaz.cz sektor 966" } },
    { "type": "Feature", "geometry": { "type": "Point", "coordinates": [13.5124325, 50.1090267] }, "properties": { "name": "Kosobody (bonus, already in app sector list)", "confidence": "high", "source": "ČHS horosvaz.cz sektor 967" } },
    { "type": "Feature", "geometry": { "type": "Point", "coordinates": [13.5126256, 50.1443394] }, "properties": { "name": "Bukov (bonus, already in app sector list)", "confidence": "high", "source": "ČHS horosvaz.cz sektor 968" } },
    { "type": "Feature", "geometry": { "type": "Point", "coordinates": [13.4179694, 50.1170972] }, "properties": { "name": "Stebenské skály (reference only, not in app sector list)", "confidence": "medium", "source": "ČHS horosvaz.cz sektor 1267" } },
    { "type": "Feature", "geometry": { "type": "Point", "coordinates": [13.4467078, 50.1274703] }, "properties": { "name": "Parking — Větrná hůrka", "confidence": "medium", "source": "ČHS horosvaz.cz sektor 958 page" } },
    { "type": "Feature", "geometry": { "type": "Point", "coordinates": [13.4392833, 50.1236186] }, "properties": { "name": "Parking — Pod hradem / Hřbitovní kameny (shared)", "confidence": "medium", "source": "ČHS horosvaz.cz sektor 960 page" } },
    { "type": "Feature", "geometry": { "type": "Point", "coordinates": [13.439, 50.120] }, "properties": { "name": "Zřícenina hradu Petrohrad (castle ruins, landmark, not a climbing feature)", "confidence": "high", "source": "Turistika.cz" } },
    { "type": "Feature", "geometry": { "type": "Point", "coordinates": [13.444, 50.125] }, "properties": { "name": "Zámek Petrohrad (chateau, landmark, not a climbing feature)", "confidence": "high", "source": "Turistika.cz" } },
    { "type": "Feature", "geometry": { "type": "Point", "coordinates": [13.449, 50.120] }, "properties": { "name": "Petrohradské skály (general locality marker, matches project centroid; NOT sector-specific)", "confidence": "high", "source": "Turistika.cz" } },
    { "type": "Feature", "geometry": { "type": "Point", "coordinates": [13.4387, 50.1208] }, "properties": { "name": "Unnamed cliff cluster near castle ruins (candidate Pod hradem satellite rocks, unconfirmed name match)", "confidence": "low", "source": "OpenStreetMap Overpass (4 unnamed natural=cliff nodes, centroid)" } }
  ]
}
